COSMOS 2251 DEB         
1 34037U 93036HY  26094.26681496  .00002600  00000+0  90575-3 0  9997
2 34037  74.0523 204.4191 0054125 227.9370 131.7172 14.35056761893312
COSMOS 2251 DEB         
1 34040U 93036JB  26092.86022721  .00003383  00000+0  26397-2 0  9994
2 34040  73.9564 242.1606 0339158 173.7973 186.7513 13.68880824851209
COSMOS 2251 DEB         
1 34045U 93036JG  26094.19336891  .00000265  00000+0  10342-3 0  9993
2 34045  74.0361 105.0630 0026174 166.4327 271.0001 14.34135430896454
COSMOS 2251 DEB         
1 34046U 93036JH  26094.29456561  .00007921  00000+0  20745-2 0  9995
2 34046  74.0380 160.1177 0077978 218.1268 212.6348 14.47622083894543
COSMOS 2251 DEB         
1 34050U 93036JM  26093.52107750  .00002185  00000+0  13084-2 0  9993
2 34050  74.0881 178.2380 0217441 216.2590 165.0556 13.96534603869927
COSMOS 2251 DEB         
1 34053U 93036JQ  26093.93952922  .00000421  00000+0  40289-3 0  9999
2 34053  73.8433  61.3169 0424383 191.5152 167.6011 13.49307206841975
COSMOS 2251 DEB         
1 34056U 93036JT  26093.83068435  .00005042  00000+0  21424-2 0  9991
2 34056  74.0587 235.7948 0124759 257.1458 226.6012 14.21409530880036
COSMOS 2251 DEB         
1 34058U 93036JV  26094.13603472  .00000547  00000+0  51311-3 0  9997
2 34058  73.9365 355.9111 0377377 329.6674 143.6313 13.56228172846669
COSMOS 2251 DEB         
1 34059U 93036JW  26094.09023258  .00004367  00000+0  10461-2 0  9995
2 34059  74.0399 334.1899 0016506  24.3144 126.1282 14.53732975900915
COSMOS 2251 DEB         
1 34061U 93036JY  26094.25706073  .00001590  00000+0  50568-3 0  9997
2 34061  74.0391  55.3604 0018980 111.8629   9.0010 14.40621564898005
COSMOS 2251 DEB         
1 34062U 93036JZ  26093.59251965  .00022298  00000+0  26442-2 0  9990
2 34062  74.0257 277.2940 0068326 327.6345  94.2526 14.82764899902511
COSMOS 2251 DEB         
1 34064U 93036KB  26093.87466397  .00003168  00000+0  95576-3 0  9990
2 34064  74.0323  62.7616 0020117 109.3881 277.3604 14.42772203897596
COSMOS 2251 DEB         
1 34065U 93036KC  26094.29578770  .00000702  00000+0  23950-3 0  9995
2 34065  74.0361  50.7725 0015562 129.2145 302.2386 14.38190626898234
COSMOS 2251 DEB         
1 34070U 93036KH  26094.19987451  .00028102  00000+0  35999-2 0  9999
2 34070  73.9987 254.5814 0017816 343.0567 196.8268 14.81077337902731
COSMOS 2251 DEB         
1 34114U 93036KK  26094.27403184  .00017565  00000+0  36921-2 0  9990
2 34114  74.0603 190.1744 0043072 162.3025 229.1935 14.58969818894412
COSMOS 2251 DEB         
1 34115U 93036KL  26094.19697450  .00015820  00000+0  19945-2 0  9992
2 34115  74.0087  19.8324 0031283 178.3702 181.7583 14.81624781910762
