[{"OBJECT_NAME":"COSMOS 2251 DEB","OBJECT_ID":"1993-036HY","EPOCH":"2026-04-04T06:24:12.812544","MEAN_MOTION":14.35056761,"ECCENTRICITY":0.00541255,"INCLINATION":74.0523,"RA_OF_ASC_NODE":204.4191,"ARG_OF_PERICENTER":227.937,"MEAN_ANOMALY":131.7172,"EPHEMERIS_TYPE":0,"CLASSIFICATION_TYPE":"U","NORAD_CAT_ID":34037,"ELEMENT_SET_NO":999,"REV_AT_EPOCH":89331,"BSTAR":0.00090574924,"MEAN_MOTION_DOT":2.6e-5,"MEAN_MOTION_DDOT":0},{"OBJECT_NAME":"COSMOS 2251 DEB","OBJECT_ID":"1993-036JB","EPOCH":"2026-04-02T20:38:43.630944","MEAN_MOTION":13.68880824,"ECCENTRICITY":0.0339158,"INCLINATION":73.9564,"RA_OF_ASC_NODE":242.1606,"ARG_OF_PERICENTER":173.7973,"MEAN_ANOMALY":186.7513,"EPHEMERIS_TYPE":0,"CLASSIFICATION_TYPE":"U","NORAD_CAT_ID":34040,"ELEMENT_SET_NO":999,"REV_AT_EPOCH":85120,"BSTAR":0.0026396726,"MEAN_MOTION_DOT":3.383e-5,"MEAN_MOTION_DDOT":0},{"OBJECT_NAME":"COSMOS 2251 DEB","OBJECT_ID":"1993-036JG","EPOCH":"2026-04-04T04:38:27.073824","MEAN_MOTION":14.3413543,"ECCENTRICITY":0.00261742,"INCLINATION":74.0361,"RA_OF_ASC_NODE":105.063,"ARG_OF_PERICENTER":166.4327,"MEAN_ANOMALY":271.0001,"EPHEMERIS_TYPE":0,"CLASSIFICATION_TYPE":"U","NORAD_CAT_ID":34045,"ELEMENT_SET_NO":999,"REV_AT_EPOCH":89645,"BSTAR":0.00010341511,"MEAN_MOTION_DOT":2.65e-6,"MEAN_MOTION_DDOT":0},{"OBJECT_NAME":"COSMOS 2251 DEB","OBJECT_ID":"1993-036JH","EPOCH":"2026-04-04T07:04:10.468704","MEAN_MOTION":14.47622083,"ECCENTRICITY":0.00779788,"INCLINATION":74.038,"RA_OF_ASC_NODE":160.1177,"ARG_OF_PERICENTER":218.1268,"MEAN_ANOMALY":212.6348,"EPHEMERIS_TYPE":0,"CLASSIFICATION_TYPE":"U","NORAD_CAT_ID":34046,"ELEMENT_SET_NO":999,"REV_AT_EPOCH":89454,"BSTAR":0.0020744642,"MEAN_MOTION_DOT":7.921e-5,"MEAN_MOTION_DDOT":0},{"OBJECT_NAME":"COSMOS 2251 DEB","OBJECT_ID":"1993-036JM","EPOCH":"2026-04-03T12:30:21.096000","MEAN_MOTION":13.96534603,"ECCENTRICITY":0.02174413,"INCLINATION":74.0881,"RA_OF_ASC_NODE":178.238,"ARG_OF_PERICENTER":216.259,"MEAN_ANOMALY":165.0556,"EPHEMERIS_TYPE":0,"CLASSIFICATION_TYPE":"U","NORAD_CAT_ID":34050,"ELEMENT_SET_NO":999,"REV_AT_EPOCH":86992,"BSTAR":0.0013083716,"MEAN_MOTION_DOT":2.185e-5,"MEAN_MOTION_DDOT":0},{"OBJECT_NAME":"COSMOS 2251 DEB","OBJECT_ID":"1993-036JQ","EPOCH":"2026-04-03T22:32:55.324608","MEAN_MOTION":13.49307206,"ECCENTRICITY":0.04243838,"INCLINATION":73.8433,"RA_OF_ASC_NODE":61.3169,"ARG_OF_PERICENTER":191.5152,"MEAN_ANOMALY":167.6011,"EPHEMERIS_TYPE":0,"CLASSIFICATION_TYPE":"U","NORAD_CAT_ID":34053,"ELEMENT_SET_NO":999,"REV_AT_EPOCH":84197,"BSTAR":0.00040289,"MEAN_MOTION_DOT":4.21e-6,"MEAN_MOTION_DDOT":0},{"OBJECT_NAME":"COSMOS 2251 DEB","OBJECT_ID":"1993-036JT","EPOCH":"2026-04-03T19:56:11.127840","MEAN_MOTION":14.2140953,"ECCENTRICITY":0.01247598,"INCLINATION":74.0587,"RA_OF_ASC_NODE":235.7948,"ARG_OF_PERICENTER":257.1458,"MEAN_ANOMALY":226.6012,"EPHEMERIS_TYPE":0,"CLASSIFICATION_TYPE":"U","NORAD_CAT_ID":34056,"ELEMENT_SET_NO":999,"REV_AT_EPOCH":88003,"BSTAR":0.0021423658,"MEAN_MOTION_DOT":5.042e-5,"MEAN_MOTION_DDOT":0},{"OBJECT_NAME":"COSMOS 2251 DEB","OBJECT_ID":"1993-036JV","EPOCH":"2026-04-04T03:15:53.399808","MEAN_MOTION":13.56228172,"ECCENTRICITY":0.03773772,"INCLINATION":73.9365,"RA_OF_ASC_NODE":355.9111,"ARG_OF_PERICENTER":329.6674,"MEAN_ANOMALY":143.6313,"EPHEMERIS_TYPE":0,"CLASSIFICATION_TYPE":"U","NORAD_CAT_ID":34058,"ELEMENT_SET_NO":999,"REV_AT_EPOCH":84666,"BSTAR":0.00051310937,"MEAN_MOTION_DOT":5.47e-6,"MEAN_MOTION_DDOT":0},{"OBJECT_NAME":"COSMOS 2251 DEB","OBJECT_ID":"1993-036JW","EPOCH":"2026-04-04T02:09:56.094912","MEAN_MOTION":14.53732975,"ECCENTRICITY":0.00165064,"INCLINATION":74.0399,"RA_OF_ASC_NODE":334.1899,"ARG_OF_PERICENTER":24.3144,"MEAN_ANOMALY":126.1282,"EPHEMERIS_TYPE":0,"CLASSIFICATION_TYPE":"U","NORAD_CAT_ID":34059,"ELEMENT_SET_NO":999,"REV_AT_EPOCH":90091,"BSTAR":0.0010460691,"MEAN_MOTION_DOT":4.367e-5,"MEAN_MOTION_DDOT":0},{"OBJECT_NAME":"COSMOS 2251 DEB","OBJECT_ID":"1993-036JY","EPOCH":"2026-04-04T06:10:10.047072","MEAN_MOTION":14.40621564,"ECCENTRICITY":0.00189806,"INCLINATION":74.0391,"RA_OF_ASC_NODE":55.3604,"ARG_OF_PERICENTER":111.8629,"MEAN_ANOMALY":9.001,"EPHEMERIS_TYPE":0,"CLASSIFICATION_TYPE":"U","NORAD_CAT_ID":34061,"ELEMENT_SET_NO":999,"REV_AT_EPOCH":89800,"BSTAR":0.00050567645,"MEAN_MOTION_DOT":1.59e-5,"MEAN_MOTION_DDOT":0},{"OBJECT_NAME":"COSMOS 2251 DEB","OBJECT_ID":"1993-036JZ","EPOCH":"2026-04-03T14:13:13.697760","MEAN_MOTION":14.82764899,"ECCENTRICITY":0.0068326,"INCLINATION":74.0257,"RA_OF_ASC_NODE":277.294,"ARG_OF_PERICENTER":327.6345,"MEAN_ANOMALY":94.2526,"EPHEMERIS_TYPE":0,"CLASSIFICATION_TYPE":"U","NORAD_CAT_ID":34062,"ELEMENT_SET_NO":999,"REV_AT_EPOCH":90251,"BSTAR":0.0026442,"MEAN_MOTION_DOT":0.00022298,"MEAN_MOTION_DDOT":0},{"OBJECT_NAME":"COSMOS 2251 DEB","OBJECT_ID":"1993-036KB","EPOCH":"2026-04-03T20:59:30.967008","MEAN_MOTION":14.42772203,"ECCENTRICITY":0.0020117,"INCLINATION":74.0323,"RA_OF_ASC_NODE":62.7616,"ARG_OF_PERICENTER":109.3881,"MEAN_ANOMALY":277.3604,"EPHEMERIS_TYPE":0,"CLASSIFICATION_TYPE":"U","NORAD_CAT_ID":34064,"ELEMENT_SET_NO":999,"REV_AT_EPOCH":89759,"BSTAR":0.00095575826,"MEAN_MOTION_DOT":3.168e-5,"MEAN_MOTION_DDOT":0},{"OBJECT_NAME":"COSMOS 2251 DEB","OBJECT_ID":"1993-036KC","EPOCH":"2026-04-04T07:05:56.057280","MEAN_MOTION":14.38190626,"ECCENTRICITY":0.00155623,"INCLINATION":74.0361,"RA_OF_ASC_NODE":50.7725,"ARG_OF_PERICENTER":129.2145,"MEAN_ANOMALY":302.2386,"EPHEMERIS_TYPE":0,"CLASSIFICATION_TYPE":"U","NORAD_CAT_ID":34065,"ELEMENT_SET_NO":999,"REV_AT_EPOCH":89823,"BSTAR":0.00023949816,"MEAN_MOTION_DOT":7.02e-6,"MEAN_MOTION_DDOT":0},{"OBJECT_NAME":"COSMOS 2251 DEB","OBJECT_ID":"1993-036KH","EPOCH":"2026-04-04T04:47:49.157664","MEAN_MOTION":14.81077337,"ECCENTRICITY":0.00178165,"INCLINATION":73.9987,"RA_OF_ASC_NODE":254.5814,"ARG_OF_PERICENTER":343.0567,"MEAN_ANOMALY":196.8268,"EPHEMERIS_TYPE":0,"CLASSIFICATION_TYPE":"U","NORAD_CAT_ID":34070,"ELEMENT_SET_NO":999,"REV_AT_EPOCH":90273,"BSTAR":0.0035998601,"MEAN_MOTION_DOT":0.00028102,"MEAN_MOTION_DDOT":0},{"OBJECT_NAME":"COSMOS 2251 DEB","OBJECT_ID":"1993-036KK","EPOCH":"2026-04-04T06:34:36.350976","MEAN_MOTION":14.58969818,"ECCENTRICITY":0.00430726,"INCLINATION":74.0603,"RA_OF_ASC_NODE":190.1744,"ARG_OF_PERICENTER":162.3025,"MEAN_ANOMALY":229.1935,"EPHEMERIS_TYPE":0,"CLASSIFICATION_TYPE":"U","NORAD_CAT_ID":34114,"ELEMENT_SET_NO":999,"REV_AT_EPOCH":89441,"BSTAR":0.0036920502,"MEAN_MOTION_DOT":0.00017565,"MEAN_MOTION_DDOT":0},{"OBJECT_NAME":"COSMOS 2251 DEB","OBJECT_ID":"1993-036KL","EPOCH":"2026-04-04T04:43:38.596800","MEAN_MOTION":14.81624781,"ECCENTRICITY":0.00312834,"INCLINATION":74.0087,"RA_OF_ASC_NODE":19.8324,"ARG_OF_PERICENTER":178.3702,"MEAN_ANOMALY":181.7583,"EPHEMERIS_TYPE":0,"CLASSIFICATION_TYPE":"U","NORAD_CAT_ID":34115,"ELEMENT_SET_NO":999,"REV_AT_EPOCH":91076,"BSTAR":0.0019944581,"MEAN_MOTION_DOT":0.0001582,"MEAN_MOTION_DDOT":0}]
